CCSDS_OMM_VERS = 2.0
CREATION_DATE  = 
ORIGINATOR     = 

OBJECT_NAME    = SL-14 R/B
OBJECT_ID      = 1991-042B
CENTER_NAME    = EARTH
REF_FRAME      = TEME
TIME_SYSTEM    = UTC
MEAN_ELEMENT_THEORY = SGP/SGP4

EPOCH          = 2026-01-03T02:54:42.251904
MEAN_MOTION    = 14.81763281
ECCENTRICITY   = .0018569
INCLINATION    = 82.4937
RA_OF_ASC_NODE = 281.6753
ARG_OF_PERICENTER = 95.8992
MEAN_ANOMALY   = 264.4339

EPHEMERIS_TYPE = 0
CLASSIFICATION_TYPE = U
NORAD_CAT_ID   = 21423
ELEMENT_SET_NO = 999
REV_AT_EPOCH   = 84336
BSTAR          = .10236E-3
MEAN_MOTION_DOT = .833E-5
MEAN_MOTION_DDOT = 0

CCSDS_OMM_VERS = 2.0
CREATION_DATE  = 
ORIGINATOR     = 

OBJECT_NAME    = ERS-1
OBJECT_ID      = 1991-050A
CENTER_NAME    = EARTH
REF_FRAME      = TEME
TIME_SYSTEM    = UTC
MEAN_ELEMENT_THEORY = SGP/SGP4

EPOCH          = 2026-01-03T00:11:58.429824
MEAN_MOTION    = 14.39385545
ECCENTRICITY   = .003263
INCLINATION    = 98.7896
RA_OF_ASC_NODE = 19.5945
ARG_OF_PERICENTER = 38.5827
MEAN_ANOMALY   = 321.7683

EPHEMERIS_TYPE = 0
CLASSIFICATION_TYPE = U
NORAD_CAT_ID   = 21574
ELEMENT_SET_NO = 999
REV_AT_EPOCH   = 80628
BSTAR          = .23332E-3
MEAN_MOTION_DOT = .684E-5
MEAN_MOTION_DDOT = 0

CCSDS_OMM_VERS = 2.0
CREATION_DATE  = 
ORIGINATOR     = 

OBJECT_NAME    = ARIANE 40 R/B
OBJECT_ID      = 1991-050F
CENTER_NAME    = EARTH
REF_FRAME      = TEME
TIME_SYSTEM    = UTC
MEAN_ELEMENT_THEORY = SGP/SGP4

EPOCH          = 2026-01-03T03:30:13.976640
MEAN_MOTION    = 14.42834935
ECCENTRICITY   = .0001999
INCLINATION    = 98.2134
RA_OF_ASC_NODE = 57.8009
ARG_OF_PERICENTER = 272.5182
MEAN_ANOMALY   = 87.5779

EPHEMERIS_TYPE = 0
CLASSIFICATION_TYPE = U
NORAD_CAT_ID   = 21610
ELEMENT_SET_NO = 999
REV_AT_EPOCH   = 80954
BSTAR          = .22499E-3
MEAN_MOTION_DOT = .709E-5
MEAN_MOTION_DDOT = 0

CCSDS_OMM_VERS = 2.0
CREATION_DATE  = 
ORIGINATOR     = 

OBJECT_NAME    = INTERCOSMOS 25
OBJECT_ID      = 1991-086A
CENTER_NAME    = EARTH
REF_FRAME      = TEME
TIME_SYSTEM    = UTC
MEAN_ELEMENT_THEORY = SGP/SGP4

EPOCH          = 2026-01-02T22:28:07.171104
MEAN_MOTION    = 12.11818191
ECCENTRICITY   = .148598
INCLINATION    = 82.6075
RA_OF_ASC_NODE = 349.7534
ARG_OF_PERICENTER = 258.6786
MEAN_ANOMALY   = 84.4257

EPHEMERIS_TYPE = 0
CLASSIFICATION_TYPE = U
NORAD_CAT_ID   = 21819
ELEMENT_SET_NO = 999
REV_AT_EPOCH   = 48872
BSTAR          = .45403E-3
MEAN_MOTION_DOT = .2279E-4
MEAN_MOTION_DDOT = 0

CCSDS_OMM_VERS = 2.0
CREATION_DATE  = 
ORIGINATOR     = 

OBJECT_NAME    = SL-8 R/B
OBJECT_ID      = 1992-008B
CENTER_NAME    = EARTH
REF_FRAME      = TEME
TIME_SYSTEM    = UTC
MEAN_ELEMENT_THEORY = SGP/SGP4

EPOCH          = 2026-01-02T23:42:04.584384
MEAN_MOTION    = 13.75964143
ECCENTRICITY   = .0033925
INCLINATION    = 82.9281
RA_OF_ASC_NODE = 316.6428
ARG_OF_PERICENTER = 320.1140
MEAN_ANOMALY   = 110.9075

EPHEMERIS_TYPE = 0
CLASSIFICATION_TYPE = U
NORAD_CAT_ID   = 21876
ELEMENT_SET_NO = 999
REV_AT_EPOCH   = 70038
BSTAR          = .13126E-3
MEAN_MOTION_DOT = .143E-5
MEAN_MOTION_DDOT = 0

CCSDS_OMM_VERS = 2.0
CREATION_DATE  = 
ORIGINATOR     = 

OBJECT_NAME    = SL-8 R/B
OBJECT_ID      = 1992-020B
CENTER_NAME    = EARTH
REF_FRAME      = TEME
TIME_SYSTEM    = UTC
MEAN_ELEMENT_THEORY = SGP/SGP4

EPOCH          = 2026-01-03T02:12:33.098400
MEAN_MOTION    = 13.75533968
ECCENTRICITY   = .0030053
INCLINATION    = 82.9291
RA_OF_ASC_NODE = 202.4612
ARG_OF_PERICENTER = 119.7834
MEAN_ANOMALY   = 355.3215

EPHEMERIS_TYPE = 0
CLASSIFICATION_TYPE = U
NORAD_CAT_ID   = 21938
ELEMENT_SET_NO = 999
REV_AT_EPOCH   = 69211
BSTAR          = .2286E-3
MEAN_MOTION_DOT = .236E-5
MEAN_MOTION_DDOT = 0

CCSDS_OMM_VERS = 2.0
CREATION_DATE  = 
ORIGINATOR     = 

OBJECT_NAME    = USA 81
OBJECT_ID      = 1992-023A
CENTER_NAME    = EARTH
REF_FRAME      = TEME
TIME_SYSTEM    = UTC
MEAN_ELEMENT_THEORY = SGP/SGP4

EPOCH          = 2026-01-02T23:48:19.073952
MEAN_MOTION    = 14.32337264
ECCENTRICITY   = .0001141
INCLINATION    = 85.0090
RA_OF_ASC_NODE = 169.3193
ARG_OF_PERICENTER = 108.4428
MEAN_ANOMALY   = 251.6889

EPHEMERIS_TYPE = 0
CLASSIFICATION_TYPE = U
NORAD_CAT_ID   = 21949
ELEMENT_SET_NO = 999
REV_AT_EPOCH   = 8538
BSTAR          = .13787E-3
MEAN_MOTION_DOT = .392E-5
MEAN_MOTION_DDOT = 0

CCSDS_OMM_VERS = 2.0
CREATION_DATE  = 
ORIGINATOR     = 

OBJECT_NAME    = COSMOS 2219
OBJECT_ID      = 1992-076A
CENTER_NAME    = EARTH
REF_FRAME      = TEME
TIME_SYSTEM    = UTC
MEAN_ELEMENT_THEORY = SGP/SGP4

EPOCH          = 2026-01-02T19:19:02.542656
MEAN_MOTION    = 14.14076194
ECCENTRICITY   = .00200107
INCLINATION    = 71.0602
RA_OF_ASC_NODE = 155.7977
ARG_OF_PERICENTER = 297.7534
MEAN_ANOMALY   = 62.1558

EPHEMERIS_TYPE = 0
CLASSIFICATION_TYPE = U
NORAD_CAT_ID   = 22219
ELEMENT_SET_NO = 999
REV_AT_EPOCH   = 70906
BSTAR          = .23237556E-3
MEAN_MOTION_DOT = .396E-5
MEAN_MOTION_DDOT = 0

CCSDS_OMM_VERS = 2.0
CREATION_DATE  = 
ORIGINATOR     = 

OBJECT_NAME    = SL-16 R/B
OBJECT_ID      = 1992-076B
CENTER_NAME    = EARTH
REF_FRAME      = TEME
TIME_SYSTEM    = UTC
MEAN_ELEMENT_THEORY = SGP/SGP4

EPOCH          = 2026-01-03T02:42:09.187776
MEAN_MOTION    = 14.16845470
ECCENTRICITY   = .0013762
INCLINATION    = 71.0011
RA_OF_ASC_NODE = 326.5095
ARG_OF_PERICENTER = 205.0759
MEAN_ANOMALY   = 233.7664

EPHEMERIS_TYPE = 0
CLASSIFICATION_TYPE = U
NORAD_CAT_ID   = 22220
ELEMENT_SET_NO = 999
REV_AT_EPOCH   = 71254
BSTAR          = -.25531E-4
MEAN_MOTION_DOT = -.99E-6
MEAN_MOTION_DDOT = 0

CCSDS_OMM_VERS = 2.0
CREATION_DATE  = 
ORIGINATOR     = 

OBJECT_NAME    = COSMOS 2221
OBJECT_ID      = 1992-080A
CENTER_NAME    = EARTH
REF_FRAME      = TEME
TIME_SYSTEM    = UTC
MEAN_ELEMENT_THEORY = SGP/SGP4

EPOCH          = 2026-01-03T00:34:05.801664
MEAN_MOTION    = 14.95870377
ECCENTRICITY   = .0015997
INCLINATION    = 82.5045
RA_OF_ASC_NODE = 341.9508
ARG_OF_PERICENTER = 57.0157
MEAN_ANOMALY   = 303.2600

EPHEMERIS_TYPE = 0
CLASSIFICATION_TYPE = U
NORAD_CAT_ID   = 22236
ELEMENT_SET_NO = 999
REV_AT_EPOCH   = 77097
BSTAR          = .37989E-3
MEAN_MOTION_DOT = .4281E-4
MEAN_MOTION_DDOT = 0

CCSDS_OMM_VERS = 2.0
CREATION_DATE  = 
ORIGINATOR     = 

OBJECT_NAME    = SL-16 R/B
OBJECT_ID      = 1992-093B
CENTER_NAME    = EARTH
REF_FRAME      = TEME
TIME_SYSTEM    = UTC
MEAN_ELEMENT_THEORY = SGP/SGP4

EPOCH          = 2026-01-02T19:17:45.751200
MEAN_MOTION    = 14.15434505
ECCENTRICITY   = .00029718
INCLINATION    = 71.0212
RA_OF_ASC_NODE = 142.5785
ARG_OF_PERICENTER = 12.4413
MEAN_ANOMALY   = 347.6783

EPHEMERIS_TYPE = 0
CLASSIFICATION_TYPE = U
NORAD_CAT_ID   = 22285
ELEMENT_SET_NO = 999
REV_AT_EPOCH   = 70383
BSTAR          = -.39150457E-4
MEAN_MOTION_DOT = -.124E-5
MEAN_MOTION_DDOT = 0

CCSDS_OMM_VERS = 2.0
CREATION_DATE  = 
ORIGINATOR     = 

OBJECT_NAME    = COSMOS 2228
OBJECT_ID      = 1992-094A
CENTER_NAME    = EARTH
REF_FRAME      = TEME
TIME_SYSTEM    = UTC
MEAN_ELEMENT_THEORY = SGP/SGP4

EPOCH          = 2026-01-03T01:59:23.519904
MEAN_MOTION    = 14.96851912
ECCENTRICITY   = .0018466
INCLINATION    = 82.5196
RA_OF_ASC_NODE = 300.1126
ARG_OF_PERICENTER = 157.3123
MEAN_ANOMALY   = 202.8920

EPHEMERIS_TYPE = 0
CLASSIFICATION_TYPE = U
NORAD_CAT_ID   = 22286
ELEMENT_SET_NO = 999
REV_AT_EPOCH   = 76624
BSTAR          = .39932E-3
MEAN_MOTION_DOT = .4617E-4
MEAN_MOTION_DDOT = 0

