SL-14 R/B               
1 21423U 91042B   26003.12132236  .00000833  00000+0  10236-3 0  9997
2 21423  82.4937 281.6753 0018569  95.8992 264.4339 14.81763281843366
ERS-1                   
1 21574U 91050A   26003.00831516  .00000684  00000+0  23332-3 0  9992
2 21574  98.7896  19.5945 0032630  38.5827 321.7683 14.39385545806289
ARIANE 40 R/B           
1 21610U 91050F   26003.14599510  .00000709  00000+0  22499-3 0  9994
2 21610  98.2134  57.8009 0001999 272.5182  87.5779 14.42834935809545
INTERCOSMOS 25          
1 21819U 91086A   26002.93619411  .00002279  00000+0  45403-3 0  9997
2 21819  82.6075 349.7534 1485980 258.6786  84.4257 12.11818191488725
SL-8 R/B                
1 21876U 92008B   26002.98755306  .00000143  00000+0  13126-3 0  9999
2 21876  82.9281 316.6428 0033925 320.1140 110.9075 13.75964143700383
SL-8 R/B                
1 21938U 92020B   26003.09204975  .00000236  00000+0  22860-3 0  9994
2 21938  82.9291 202.4612 0030053 119.7834 355.3215 13.75533968692110
USA 81                  
1 21949U 92023A   26002.99188743  .00000392  00000+0  13787-3 0  9992
2 21949  85.0090 169.3193 0001141 108.4428 251.6889 14.32337264 85383
COSMOS 2219             
1 22219U 92076A   26002.80489054  .00000396  00000+0  23238-3 0  9996
2 22219  71.0602 155.7977 0020010 297.7534  62.1558 14.14076194709061
SL-16 R/B               
1 22220U 92076B   26003.11260634 -.00000099  00000+0 -25531-4 0  9995
2 22220  71.0011 326.5095 0013762 205.0759 233.7664 14.16845470712547
COSMOS 2221             
1 22236U 92080A   26003.02367826  .00004281  00000+0  37989-3 0  9992
2 22236  82.5045 341.9508 0015997  57.0157 303.2600 14.95870377770972
SL-16 R/B               
1 22285U 92093B   26002.80400175 -.00000124  00000+0 -39150-4 0  9997
2 22285  71.0212 142.5785 0002971  12.4413 347.6783 14.15434505703831
COSMOS 2228             
1 22286U 92094A   26003.08291111  .00004617  00000+0  39932-3 0  9994
2 22286  82.5196 300.1126 0018466 157.3123 202.8920 14.96851912766247
